*******************************************************************************
JPL/HORIZONS                1082 Pirola (1927 UC)          2023-Sep-04 11:10:06
Rec #:    1082 (+COV) Soln.date: 2023-Aug-21_13:33:38   # obs: 4936 (1927-2023)
 
IAU76/J2000 helio. ecliptic osc. elements (au, days, deg., period=Julian yrs):
 
  EPOCH=  2456720.5 ! 2014-Mar-04.00 (TDB)         Residual RMS= .25709
   EC= .1811052918018125   QR= 2.555883732280748   TP= 2457270.4337037769
   OM= 148.0163790774416   W=  187.5522886701715   IN= 1.852118599946781
   A= 3.121138415834259    MA= 261.7019579768959   ADIST= 3.686393099387769
   PER= 5.51414            N= .178745258           ANGMOM= .029887962
   DAN= 3.67933            DDN= 2.55929            L= 335.5647677
   B= -.243384             MOID= 1.54413998        TP= 2015-Sep-04.9337037769
 
Asteroid physical parameters (km, seconds, rotational period in hours):
   GM= n.a.                RAD= 21.3035            ROTPER= 15.8525
   H= 10.56                G= .150                 B-V= .705
                           ALBEDO= .052            STYP= C

ASTEROID comments: 
1: soln ref.= JPL#75, OCC=0
2: source=ORB
*******************************************************************************


*******************************************************************************
Ephemeris / API_USER Mon Sep  4 11:10:06 2023 Pasadena, USA      / Horizons
*******************************************************************************
Target body name: 1082 Pirola (1927 UC)           {source: JPL#75}
Center body name: Solar System Barycenter (0)     {source: DE441}
Center-site name: BODY CENTER
*******************************************************************************
Start time      : A.D. 2023-Aug-12 00:00:00.0000 TDB
Stop  time      : A.D. 2023-Aug-13 00:00:00.0000 TDB
Step-size       : 2880 minutes
*******************************************************************************
Center geodetic : 0.0, 0.0, 0.0                   {E-lon(deg),Lat(deg),Alt(km)}
Center cylindric: 0.0, 0.0, 0.0                   {E-lon(deg),Dxy(km),Dz(km)}
Center radii    : (undefined)
Small perturbers: Yes                             {source: SB441-N16}
Output units    : KM-S
Calendar mode   : Mixed Julian/Gregorian
Output type     : GEOMETRIC cartesian states
Output format   : 2 (position and velocity)
Reference frame : Ecliptic of J2000.0
*******************************************************************************
Initial IAU76/J2000 heliocentric ecliptic osculating elements (au, days, deg.):
  EPOCH=  2456720.5 ! 2014-Mar-04.00 (TDB)         Residual RMS= .25709        
   EC= .1811052918018125   QR= 2.555883732280748   TP= 2457270.4337037769      
   OM= 148.0163790774416   W=  187.5522886701715   IN= 1.852118599946781       
  Equivalent ICRF heliocentric cartesian coordinates (au, au/d):
   X=-2.605691282369713E+00  Y=-1.891292241355232E+00  Z=-7.110016082385129E-01
  VX= 6.805741510742796E-03 VY=-5.703519855291035E-03 VZ=-2.414681002952976E-03
Asteroid physical parameters (km, seconds, rotational period in hours):        
   GM= n.a.                RAD= 21.3035            ROTPER= 15.8525             
   H= 10.56                G= .150                 B-V= .705                   
                           ALBEDO= .052            STYP= C                     
*******************************************************************************
JDTDB
   X     Y     Z
   VX    VY    VZ
*******************************************************************************
$$SOE
2460168.500000000 = A.D. 2023-Aug-12 00:00:00.0000 TDB 
 X =-4.171244028931953E+08 Y = 3.549969267079409E+08 Z =-2.570009197810307E+06
 VX=-9.793835628903492E+00 VY=-1.025830944836641E+01 VZ= 4.496009622797357E-01
$$EOE
*******************************************************************************
 
TIME

  Barycentric Dynamical Time ("TDB" or T_eph) output was requested. This
continuous coordinate time is equivalent to the relativistic proper time
of a clock at rest in a reference frame co-moving with the solar system
barycenter but outside the system's gravity well. It is the independent
variable in the solar system relativistic equations of motion.

  TDB runs at a uniform rate of one SI second per second and is independent
of irregularities in Earth's rotation.
 
CALENDAR SYSTEM

  Mixed calendar mode was active such that calendar dates after AD 1582-Oct-15
(if any) are in the modern Gregorian system. Dates prior to 1582-Oct-5 (if any)
are in the Julian calendar system, which is automatically extended for dates
prior to its adoption on 45-Jan-1 BC.  The Julian calendar is useful for
matching historical dates. The Gregorian calendar more accurately corresponds
to the Earth's orbital motion and seasons. A "Gregorian-only" calendar mode is
available if such physical events are the primary interest.

REFERENCE FRAME AND COORDINATES

  Ecliptic at the standard reference epoch

    Reference epoch: J2000.0
    X-Y plane: adopted Earth orbital plane at the reference epoch
               Note: IAU76 obliquity of 84381.448 arcseconds wrt ICRF X-Y plane
    X-axis   : ICRF
    Z-axis   : perpendicular to the X-Y plane in the directional (+ or -) sense
               of Earth's north pole at the reference epoch.

  Symbol meaning:

    JDTDB    Julian Day Number, Barycentric Dynamical Time
      X      X-component of position vector (km)
      Y      Y-component of position vector (km)
      Z      Z-component of position vector (km)
      VX     X-component of velocity vector (km/sec)                           
      VY     Y-component of velocity vector (km/sec)                           
      VZ     Z-component of velocity vector (km/sec)                           

ABERRATIONS AND CORRECTIONS

 Geometric state vectors have NO corrections or aberrations applied.

Computations by ...

    Solar System Dynamics Group, Horizons On-Line Ephemeris System
    4800 Oak Grove Drive, Jet Propulsion Laboratory
    Pasadena, CA  91109   USA

    General site: https://ssd.jpl.nasa.gov/
    Mailing list: https://ssd.jpl.nasa.gov/email_list.html
    System news : https://ssd.jpl.nasa.gov/horizons/news.html
    User Guide  : https://ssd.jpl.nasa.gov/horizons/manual.html
    Connect     : browser        https://ssd.jpl.nasa.gov/horizons/app.html#/x
                  API            https://ssd-api.jpl.nasa.gov/doc/horizons.html
                  command-line   telnet ssd.jpl.nasa.gov 6775
                  e-mail/batch   https://ssd.jpl.nasa.gov/ftp/ssd/hrzn_batch.txt
                  scripts        https://ssd.jpl.nasa.gov/ftp/ssd/SCRIPTS
    Author      : Jon.D.Giorgini@jpl.nasa.gov
*******************************************************************************
